{
    "links": {
        "self": "http://www.neowsapp.com/rest/v1/neo/3976530?api_key=iIulBulltgU6a56xZRHN4H3l9WmuAYTsLGpBGhQ2"
    },
    "id": "3976530",
    "neo_reference_id": "3976530",
    "name": "(2020 AM1)",
    "designation": "2020 AM1",
    "nasa_jpl_url": "http://ssd.jpl.nasa.gov/sbdb.cgi?sstr=3976530",
    "absolute_magnitude_h": 24.7,
    "estimated_diameter": {
        "kilometers": {
            "estimated_diameter_min": 0.0305179233,
            "estimated_diameter_max": 0.0682401509
        },
        "meters": {
            "estimated_diameter_min": 30.5179232594,
            "estimated_diameter_max": 68.2401509401
        },
        "miles": {
            "estimated_diameter_min": 0.0189629525,
            "estimated_diameter_max": 0.0424024508
        },
        "feet": {
            "estimated_diameter_min": 100.1244233463,
            "estimated_diameter_max": 223.8850168104
        }
    },
    "is_potentially_hazardous_asteroid": false,
    "close_approach_data": [
        {
            "close_approach_date": "1984-01-06",
            "close_approach_date_full": "1984-Jan-06 04:40",
            "epoch_date_close_approach": 442212000000,
            "relative_velocity": {
                "kilometers_per_second": "5.6313810623",
                "kilometers_per_hour": "20272.9718242826",
                "miles_per_hour": "12596.8362982605"
            },
            "miss_distance": {
                "astronomical": "0.197457988",
                "lunar": "76.811157332",
                "kilometers": "29539294.41928556",
                "miles": "18354866.425678328"
            },
            "orbiting_body": "Earth"
        },
        {
            "close_approach_date": "2008-10-03",
            "close_approach_date_full": "2008-Oct-03 20:14",
            "epoch_date_close_approach": 1223064840000,
            "relative_velocity": {
                "kilometers_per_second": "1.5047694726",
                "kilometers_per_hour": "5417.1701012407",
                "miles_per_hour": "3366.0188331848"
            },
            "miss_distance": {
                "astronomical": "1.9682681711",
                "lunar": "765.6563185579",
                "kilometers": "294448725.985355557",
                "miles": "182961954.2687464066"
            },
            "orbiting_body": "Juptr"
        },
        {
            "close_approach_date": "2020-01-01",
            "close_approach_date_full": "2020-Jan-01 07:18",
            "epoch_date_close_approach": 1577863080000,
            "relative_velocity": {
                "kilometers_per_second": "4.1529383168",
                "kilometers_per_hour": "14950.577940303",
                "miles_per_hour": "9289.70772074"
            },
            "miss_distance": {
                "astronomical": "0.1596570278",
                "lunar": "62.1065838142",
                "kilometers": "23884351.289410786",
                "miles": "14841047.7027134068"
            },
            "orbiting_body": "Earth"
        },
        {
            "close_approach_date": "2055-12-26",
            "close_approach_date_full": "2055-Dec-26 20:51",
            "epoch_date_close_approach": 2713467060000,
            "relative_velocity": {
                "kilometers_per_second": "6.9181980493",
                "kilometers_per_hour": "24905.5129774446",
                "miles_per_hour": "15475.3172164572"
            },
            "miss_distance": {
                "astronomical": "0.2832010549",
                "lunar": "110.1652103561",
                "kilometers": "42366274.594793063",
                "miles": "26325182.3182797494"
            },
            "orbiting_body": "Earth"
        },
        {
            "close_approach_date": "2105-01-05",
            "close_approach_date_full": "2105-Jan-05 09:52",
            "epoch_date_close_approach": 4260592320000,
            "relative_velocity": {
                "kilometers_per_second": "4.4124364983",
                "kilometers_per_hour": "15884.7713938667",
                "miles_per_hour": "9870.179203039"
            },
            "miss_distance": {
                "astronomical": "0.164779588",
                "lunar": "64.099259732",
                "kilometers": "24650675.38427756",
                "miles": "15317219.414887928"
            },
            "orbiting_body": "Earth"
        }
    ],
    "orbital_data": {
        "orbit_id": "5",
        "orbit_determination_date": "2020-02-01 05:47:17",
        "first_observation_date": "2019-12-29",
        "last_observation_date": "2020-02-01",
        "data_arc_in_days": 34,
        "observations_used": 32,
        "orbit_uncertainty": "6",
        "minimum_orbit_intersection": ".155627",
        "jupiter_tisserand_invariant": "3.498",
        "epoch_osculation": "2459000.5",
        "eccentricity": ".4860233229463057",
        "semi_major_axis": "2.202088677646518",
        "inclination": "3.690274330900338",
        "ascending_node_longitude": "322.5493359488154",
        "orbital_period": "1193.577525847612",
        "perihelion_distance": "1.131822221114321",
        "perihelion_argument": "136.3584621055599",
        "aphelion_distance": "3.272355134178714",
        "perihelion_time": "2458846.732475706301",
        "mean_anomaly": "46.37847776701442",
        "mean_motion": ".3016142581474531",
        "equinox": "J2000",
        "orbit_class": {
            "orbit_class_type": "AMO",
            "orbit_class_description": "Near-Earth asteroid orbits similar to that of 1221 Amor",
            "orbit_class_range": "1.017 AU < q (perihelion) < 1.3 AU"
        }
    },
    "is_sentry_object": false
}